{
  "type": "FeatureCollection",
  "features": [
    {
      "type": "Feature",
      "properties": {
        "norad_id": 33748,
        "name": "FENGYUN 1C DEB",
        "group": "fengyun-1c-debris",
        "lat": 12.530707571614315,
        "lon": 35.394962293876915,
        "alt_km": 801.1432646485546,
        "timestamp": "2025-12-12T03:50:52.704230+00:00",
        "meta_object_name": "FENGYUN 1C DEB",
        "meta_object_id": "1999-025DJM",
        "meta_epoch": "2025-12-11T14:22:32.829312",
        "meta_mean_motion": 14.32270627,
        "meta_eccentricity": 0.00345122,
        "meta_inclination": 98.5864,
        "meta_ra_of_asc_node": 36.7637,
        "meta_arg_of_pericenter": 244.4311,
        "meta_mean_anomaly": 115.3303,
        "meta_ephemeris_type": 0,
        "meta_classification_type": "U",
        "meta_norad_cat_id": 33748,
        "meta_element_set_no": 999,
        "meta_rev_at_epoch": 91377,
        "meta_bstar": 0.0019946465,
        "meta_mean_motion_dot": 5.376e-05,
        "meta_mean_motion_ddot": 0,
        "tle_line1": "1 33748U 99025DJM 25345.59899108  .00005376  00000+0  19946-2 0  9999",
        "tle_line2": "2 33748  98.5864  36.7637 0034512 244.4311 115.3303 14.32270627913770"
      },
      "geometry": {
        "type": "Point",
        "coordinates": [
          35.394962293876915,
          12.530707571614315
        ]
      }
    },
    {
      "type": "Feature",
      "properties": {
        "norad_id": 35088,
        "name": "FENGYUN 1C DEB",
        "group": "fengyun-1c-debris",
        "lat": 50.642885462460264,
        "lon": -12.331154120107671,
        "alt_km": 796.2767135567246,
        "timestamp": "2025-12-12T03:50:52.704240+00:00",
        "meta_object_name": "FENGYUN 1C DEB",
        "meta_object_id": "1999-025DJQ",
        "meta_epoch": "2025-12-05T18:07:13.251936",
        "meta_mean_motion": 14.11541767,
        "meta_eccentricity": 0.0269112,
        "meta_inclination": 94.6213,
        "meta_ra_of_asc_node": 158.6962,
        "meta_arg_of_pericenter": 224.9702,
        "meta_mean_anomaly": 132.9405,
        "meta_ephemeris_type": 0,
        "meta_classification_type": "U",
        "meta_norad_cat_id": 35088,
        "meta_element_set_no": 999,
        "meta_rev_at_epoch": 58701,
        "meta_bstar": 0.013442762,
        "meta_mean_motion_dot": 0.00034432,
        "meta_mean_motion_ddot": 0,
        "tle_line1": "1 35088U 99025DJQ 25339.75501449  .00034432  00000+0  13443-1 0  9997",
        "tle_line2": "2 35088  94.6213 158.6962 0269112 224.9702 132.9405 14.11541767587017"
      },
      "geometry": {
        "type": "Point",
        "coordinates": [
          -12.331154120107671,
          50.642885462460264
        ]
      }
    },
    {
      "type": "Feature",
      "properties": {
        "norad_id": 35089,
        "name": "FENGYUN 1C DEB",
        "group": "fengyun-1c-debris",
        "lat": 22.060389195232045,
        "lon": -7.480241070826649,
        "alt_km": 811.8519532786577,
        "timestamp": "2025-12-12T03:50:52.704250+00:00",
        "meta_object_name": "FENGYUN 1C DEB",
        "meta_object_id": "1999-025DJR",
        "meta_epoch": "2025-12-09T11:27:18.732960",
        "meta_mean_motion": 14.19406772,
        "meta_eccentricity": 0.00291418,
        "meta_inclination": 98.5584,
        "meta_ra_of_asc_node": 353.4263,
        "meta_arg_of_pericenter": 74.1039,
        "meta_mean_anomaly": 286.3346,
        "meta_ephemeris_type": 0,
        "meta_classification_type": "U",
        "meta_norad_cat_id": 35089,
        "meta_element_set_no": 999,
        "meta_rev_at_epoch": 60829,
        "meta_bstar": 0.00082160985,
        "meta_mean_motion_dot": 1.693e-05,
        "meta_mean_motion_ddot": 0,
        "tle_line1": "1 35089U 99025DJR 25343.47730015  .00001693  00000+0  82161-3 0  9993",
        "tle_line2": "2 35089  98.5584 353.4263 0029141  74.1039 286.3346 14.19406772608291"
      },
      "geometry": {
        "type": "Point",
        "coordinates": [
          -7.480241070826649,
          22.060389195232045
        ]
      }
    },
    {
      "type": "Feature",
      "properties": {
        "norad_id": 35090,
        "name": "FENGYUN 1C DEB",
        "group": "fengyun-1c-debris",
        "lat": -13.4276141330652,
        "lon": 1.0515311163934637,
        "alt_km": 802.842317094196,
        "timestamp": "2025-12-12T03:50:52.704261+00:00",
        "meta_object_name": "FENGYUN 1C DEB",
        "meta_object_id": "1999-025DJS",
        "meta_epoch": "2025-11-28T11:16:09.482016",
        "meta_mean_motion": 14.17474979,
        "meta_eccentricity": 0.00568935,
        "meta_inclination": 99.1993,
        "meta_ra_of_asc_node": 344.6679,
        "meta_arg_of_pericenter": 56.1043,
        "meta_mean_anomaly": 304.5524,
        "meta_ephemeris_type": 0,
        "meta_classification_type": "U",
        "meta_norad_cat_id": 35090,
        "meta_element_set_no": 999,
        "meta_rev_at_epoch": 66048,
        "meta_bstar": 0.0014922384,
        "meta_mean_motion_dot": 3.028e-05,
        "meta_mean_motion_ddot": 0,
        "tle_line1": "1 35090U 99025DJS 25332.46955419  .00003028  00000+0  14922-2 0  9992",
        "tle_line2": "2 35090  99.1993 344.6679 0056893  56.1043 304.5524 14.17474979660488"
      },
      "geometry": {
        "type": "Point",
        "coordinates": [
          1.0515311163934637,
          -13.4276141330652
        ]
      }
    },
    {
      "type": "Feature",
      "properties": {
        "norad_id": 35091,
        "name": "FENGYUN 1C DEB",
        "group": "fengyun-1c-debris",
        "lat": -48.196998776115436,
        "lon": -99.3077052579385,
        "alt_km": 680.2752950970516,
        "timestamp": "2025-12-12T03:50:52.704271+00:00",
        "meta_object_name": "FENGYUN 1C DEB",
        "meta_object_id": "1999-025DJT",
        "meta_epoch": "2025-12-10T06:26:06.539136",
        "meta_mean_motion": 14.61449976,
        "meta_eccentricity": 0.0048805,
        "meta_inclination": 98.5948,
        "meta_ra_of_asc_node": 88.4647,
        "meta_arg_of_pericenter": 299.5603,
        "meta_mean_anomaly": 60.0737,
        "meta_ephemeris_type": 0,
        "meta_classification_type": "U",
        "meta_norad_cat_id": 35091,
        "meta_element_set_no": 999,
        "meta_rev_at_epoch": 89891,
        "meta_bstar": 0.0043163,
        "meta_mean_motion_dot": 0.00021756,
        "meta_mean_motion_ddot": 0,
        "tle_line1": "1 35091U 99025DJT 25344.26813124  .00021756  00000+0  43163-2 0  9997",
        "tle_line2": "2 35091  98.5948  88.4647 0048805 299.5603  60.0737 14.61449976898918"
      },
      "geometry": {
        "type": "Point",
        "coordinates": [
          -99.3077052579385,
          -48.196998776115436
        ]
      }
    },
    {
      "type": "Feature",
      "properties": {
        "norad_id": 35102,
        "name": "FENGYUN 1C DEB",
        "group": "fengyun-1c-debris",
        "lat": 81.4738681309228,
        "lon": -99.18232117193125,
        "alt_km": 744.4060345677999,
        "timestamp": "2025-12-12T03:50:52.704281+00:00",
        "meta_object_name": "FENGYUN 1C DEB",
        "meta_object_id": "1999-025DKE",
        "meta_epoch": "2025-12-08T18:45:28.418688",
        "meta_mean_motion": 14.288571,
        "meta_eccentricity": 0.00608821,
        "meta_inclination": 98.4802,
        "meta_ra_of_asc_node": 353.1647,
        "meta_arg_of_pericenter": 103.2317,
        "meta_mean_anomaly": 257.5666,
        "meta_ephemeris_type": 0,
        "meta_classification_type": "U",
        "meta_norad_cat_id": 35102,
        "meta_element_set_no": 999,
        "meta_rev_at_epoch": 64856,
        "meta_bstar": 0.00079932448,
        "meta_mean_motion_dot": 2.015e-05,
        "meta_mean_motion_ddot": 0,
        "tle_line1": "1 35102U 99025DKE 25342.78157892  .00002015  00000+0  79932-3 0  9999",
        "tle_line2": "2 35102  98.4802 353.1647 0060882 103.2317 257.5666 14.28857100648566"
      },
      "geometry": {
        "type": "Point",
        "coordinates": [
          -99.18232117193125,
          81.4738681309228
        ]
      }
    },
    {
      "type": "Feature",
      "properties": {
        "norad_id": 35104,
        "name": "FENGYUN 1C DEB",
        "group": "fengyun-1c-debris",
        "lat": -80.96543301265208,
        "lon": 64.93518415234716,
        "alt_km": 846.0453693951076,
        "timestamp": "2025-12-12T03:50:52.704292+00:00",
        "meta_object_name": "FENGYUN 1C DEB",
        "meta_object_id": "1999-025DKG",
        "meta_epoch": "2025-12-06T18:54:45.260640",
        "meta_mean_motion": 14.20313369,
        "meta_eccentricity": 0.00310538,
        "meta_inclination": 98.5964,
        "meta_ra_of_asc_node": 347.6591,
        "meta_arg_of_pericenter": 157.8508,
        "meta_mean_anomaly": 20.7382,
        "meta_ephemeris_type": 0,
        "meta_classification_type": "U",
        "meta_norad_cat_id": 35104,
        "meta_element_set_no": 999,
        "meta_rev_at_epoch": 89682,
        "meta_bstar": 0.00068235303,
        "meta_mean_motion_dot": 1.425e-05,
        "meta_mean_motion_ddot": 0,
        "tle_line1": "1 35104U 99025DKG 25340.78802385  .00001425  00000+0  68235-3 0  9991",
        "tle_line2": "2 35104  98.5964 347.6591 0031053 157.8508  20.7382 14.20313369896824"
      },
      "geometry": {
        "type": "Point",
        "coordinates": [
          64.93518415234716,
          -80.96543301265208
        ]
      }
    }
  ]
}